SCD 1                   
1 22490U 93009B   22091.81707324  .00000523  00000+0  95572-4 0  9995
2 22490  24.9704 327.9794 0043122  86.8019 318.3121 14.44661127538865
TECHSAT 1B (GO-32)      
1 25397U 98043D   22091.54603300  .00000081  00000+0  55262-4 0  9997
2 25397  98.8099  41.8451 0001248  19.8230 340.2997 14.23739982232483
SCD 2                   
1 25504U 98060A   22091.46847073  .00000456  00000+0  78669-4 0  9996
2 25504  24.9943 184.3111 0017445  91.8443 357.2434 14.44175208237701
LANDSAT 7               
1 25682U 99020A   22091.76697401  .00000202  00000+0  54328-4 0  9996
2 25682  97.9898 142.7610 0001368  73.4155 286.7191 14.57215794221384
DLR-TUBSAT              
1 25757U 99029B   22091.82177514  .00000160  00000+0  51560-4 0  9991
2 25757  98.4815  33.6643 0014366 357.3358   2.7758 14.51478786210263
TERRA                   
1 25994U 99068A   22091.78887281 -.00000508  00000+0 -10273-3 0  9994
2 25994  98.1427 165.4486 0001215  94.6964  52.5558 14.57140577185457
MAROC-TUBSAT            
1 27004U 01056D   22091.35142747 -.00000018  00000+0  30282-4 0  9990
2 27004  99.6104 231.7866 0020508 129.9588 283.5371 13.70154145 15583
AQUA                    
1 27424U 02022A   22091.79605340  .00000954  00000+0  22143-3 0  9995
2 27424  98.2410  34.4480 0001884  91.4571 326.0927 14.57189251 59068
IRS-P6 (RESOURCESAT-1)  
1 28051U 03046A   22091.78299908  .00000109  00000+0  53266-4 0  9990
2 28051  98.4110 164.8329 0057445 245.3452 114.1739 14.34216422960037
SHIYAN 1 (SY-1)         
1 28220U 04012A   22090.70577814  .00005289  00000+0  41441-3 0  9993
2 28220  97.9782  80.6757 0013549 238.8487 121.1408 15.01374715978402
AURA                    
1 28376U 04026A   22091.58636917  .00000958  00000+0  22264-3 0  9997
2 28376  98.2028  36.0538 0001456  83.6467 276.4897 14.57133553942030
IRS-P5 (CARTOSAT-1)     
1 28649U 05017A   22091.75981282  .00001234  00000+0  15441-3 0  9995
2 28649  97.7274 154.6040 0002812  99.6984 260.4548 14.83992441915385
SINAH 1                 
1 28893U 05043D   22091.79080375  .00000433  00000+0  96249-4 0  9998
2 28893  98.0992 216.8885 0016167  56.2714 304.0026 14.61651277876010
EROS B                  
1 29079U 06014A   22091.90849894  .00013841  00000+0  60618-3 0  9993
2 29079  97.3719 213.9550 0004642 201.0821 274.6868 15.22126820884729
RESURS-DK 1             
1 29228U 06021A   22091.82288783  .00001597  00000+0  12561-3 0  9991
2 29228  69.9363 324.2816 0005724 213.2636 146.8166 15.03019281870892
ARIRANG-2 (KOMPSAT-2)   
1 29268U 06031A   22091.79529003  .00000534  00000+0  11481-3 0  9995
2 29268  97.9017 324.2092 0015233 251.7371 108.2181 14.62228757836691
LAPAN-TUBSAT            
1 29709U 07001A   22091.87945384  .00000476  00000+0  66054-4 0  9998
2 29709  97.9570  54.9011 0013617 140.0451 220.1777 14.82405525823161
CARTOSAT-2 (IRS-P7)     
1 29710U 07001B   22091.52307941  .00019047  00000+0  50966-3 0  9991
2 29710  97.8614 192.7594 0158904 326.9106  32.2266 15.26224066824499
HAIYANG-1B              
1 31113U 07010A   22091.60063569  .00000095  00000+0  52592-4 0  9996
2 31113  98.3272 120.0096 0015030  81.7815 278.5073 14.30300506780783
COSMO-SKYMED 1          
1 31598U 07023A   22091.77735376  .00000374  00000+0  53501-4 0  9998
2 31598  97.8869 276.5416 0001333  93.5560 266.5804 14.82156122801602
TERRASAR-X              
1 31698U 07026A   22091.79180856 -.00000279  00000+0 -10084-4 0  9996
2 31698  97.4456 100.4721 0001958  99.0200  73.1232 15.19149816820487
WORLDVIEW-1 (WV-1)      
1 32060U 07041A   22091.61087489  .00010151  00000+0  41944-3 0  9992
2 32060  97.3828 212.0962 0004670  35.7718 324.3831 15.24179068808687
YAOGAN 3                
1 32289U 07055A   22091.79879866  .00000378  00000+0  55338-4 0  9990
2 32289  97.9552 114.2962 0001770  87.9306 272.2106 14.81220912777692
COSMO-SKYMED 2          
1 32376U 07059A   22091.81112033  .00000774  00000+0  10378-3 0  9994
2 32376  97.8867 276.5747 0001259 100.4750 259.6627 14.82156789774354
RADARSAT-2              
1 32382U 07061A   22091.81208280  .00000214  00000+0  10000-3 0  9995
2 32382  98.5778  99.8566 0001264  99.0633  74.0337 14.29984881746342
CARTOSAT-2A             
1 32783U 08021A   22091.74912956  .00000300  00000+0  47993-4 0  9999
2 32783  97.9749 152.7239 0013922  59.9262 300.3386 14.78643609751687
HUANJING 1A (HJ-1A)     
1 33320U 08041A   22091.84158177  .00000397  00000+0  61899-4 0  9994
2 33320  97.6874 128.4609 0022437 119.1090 241.2369 14.77766340731073
HUANJING 1B (HJ-1B)     
1 33321U 08041B   22091.84777249  .00000927  00000+0  13535-3 0  9994
2 33321  97.7058 131.8794 0035626 137.4033 222.9968 14.77564536731070
GEOEYE 1                
1 33331U 08042A   22091.77109207  .00000456  00000+0  95158-4 0  9990
2 33331  98.1169 167.8432 0009841 149.7884 210.3888 14.64442345725149
THEOS                   
1 33396U 08049A   22091.78384551  .00000169  00000+0  10000-3 0  9999
2 33396  98.7562 160.3592 0001332  98.7022  39.6552 14.20030655699781
COSMO-SKYMED 3          
1 33412U 08054A   22091.79421851  .00000344  00000+0  49713-4 0  9999
2 33412  97.8868 276.5575 0001428  92.6401 267.4994 14.82151231726818
YAOGAN 4                
1 33446U 08061A   22091.84205763  .00000910  00000+0  13507-3 0  9992
2 33446  97.8107  34.3379 0016930  26.9994 333.2094 14.77273936718280
GOSAT (IBUKI)           
1 33492U 09002A   22091.57386598  .00000901  00000+0  16740-3 0  9997
2 33492  98.1047 205.0497 0001359 109.1668 250.9684 14.67531349705940
YAOGAN 6                
1 34839U 09021A   22091.83684890  .00007651  00000+0  27372-3 0  9991
2 34839  97.0768  75.6926 0025700 207.2358 152.7537 15.28737258719546
DEIMOS-1                
1 35681U 09041A   22091.78878412  .00000505  00000+0  87794-4 0  9994
2 35681  97.7237 306.7657 0002900 100.8831 259.2702 14.71995279680494
DUBAISAT-1              
1 35682U 09041B   22091.88535670  .00001055  00000+0  18752-3 0  9990
2 35682  97.7893 248.5955 0010478 320.8776  39.1685 14.69069549679041
OCEANSAT-2              
1 35931U 09051A   22091.86225370  .00066540  00000+0  17987-1 0  9996
2 35931  98.2871 188.2266 0002695 285.5741  74.4964 14.47361335663135
WORLDVIEW-2 (WV-2)      
1 35946U 09055A   22091.78755932  .00000137  00000+0  60184-4 0  9999
2 35946  98.4918 167.8837 0001092 153.2100 206.9144 14.37647367654898
SMOS                    
1 36036U 09059A   22091.51586463  .00000347  00000+0  12455-3 0  9996
2 36036  98.4442 280.1461 0001051  81.1637 278.9670 14.39757250652191
YAOGAN 7                
1 36110U 09069A   22091.75259606  .00000319  00000+0  55217-4 0  9995
2 36110  98.2103 310.4358 0024137 294.4543  65.4153 14.75058318662839
TANDEM-X                
1 36605U 10030A   22089.80323226  .00000862  00000+0  44226-4 0  9998
2 36605  97.4464  98.5136 0002149  83.0668  20.6351 15.19157984652926
CARTOSAT-2B             
1 36795U 10035A   22091.71972233  .00000504  00000+0  75809-4 0  9998
2 36795  97.9696 152.8896 0014743 128.5227 231.7315 14.78644753632724
YAOGAN 10               
1 36834U 10038A   22091.73204490  .00000511  00000+0  72517-4 0  9991
2 36834  97.9795 102.9050 0001670  79.0069 281.1341 14.81181115629428
COSMO-SKYMED 4          
1 37216U 10060A   22091.82373590  .00000172  00000+0  28178-4 0  9996
2 37216  97.8873 276.5874 0001531  80.4582 279.6785 14.82160913616900
RESOURCESAT-2           
1 37387U 11015A   22091.76674637 -.00000048  00000+0 -20201-5 0  9999
2 37387  98.6680 165.6418 0003062 298.6788  61.4094 14.21649049568268
HAIYANG-2A              
1 37781U 11043A   22091.87797617 -.00000006  00000+0  36867-4 0  9991
2 37781  99.3190  99.0590 0001559  75.3039 284.8285 13.78733142535085
RASAT                   
1 37791U 11044D   22091.73816327  .00000360  00000+0  76126-4 0  9992
2 37791  98.0929 185.9359 0022269  15.6117 344.5779 14.64941784567889
MEGHA-TROPIQUES         
1 37838U 11058A   22091.49039570  .00000434  00000+0  95972-4 0  9991
2 37838  19.9790  31.6395 0010545 153.8490 206.2447 14.09619510472901
SRMSAT                  
1 37841U 11058D   22091.46739418  .00000441  00000+0  96970-4 0  9997
2 37841  19.9735   0.2638 0011884 217.5484 300.2204 14.10735372540352
YAOGAN 13               
1 37941U 11072A   22091.88105911  .00005702  00000+0  26624-3 0  9998
2 37941  97.6242  41.0663 0001200  23.1269  61.8517 15.20227126573160
PLEIADES 1A             
1 38012U 11076F   22091.82071160  .00000195  00000+0  51624-4 0  9994
2 38012  98.1681 167.8290 0001091  93.1951 266.9371 14.58566132547901
ZIYUAN 1-02C (ZY 1-02C) 
1 38038U 11079A   22091.88997030  .00000166  00000+0  73486-4 0  9992
2 38038  98.5969 156.8291 0008188 127.0357 233.1574 14.35343631538501
ZIYUAN 3-1 (ZY 3-1)     
1 38046U 12001A   22091.75323337  .00011194  00000+0  50362-3 0  9996
2 38046  97.3470 164.5561 0003230  59.1309  94.2952 15.21259237567945
ARIRANG-3 (KOMPSAT-3)   
1 38338U 12025B   22091.85166135  .00000381  00000+0  85792-4 0  9990
2 38338  98.1736  32.7787 0009434 253.2612 106.7558 14.61783585526784
KANOPUS-V 1             
1 38707U 12039A   22091.89667131  .00008330  00000+0  37727-3 0  9997
2 38707  97.4696  14.5509 0001952  84.4880 340.6580 15.21123213537755
EXACTVIEW-1 (ADS-1B)    
1 38709U 12039C   22091.76313633  .00000101  00000+0  64402-4 0  9999
2 38709  99.0167 156.3188 0009979 279.3639  80.6410 14.24086039503820
SPOT 6                  
1 38755U 12047A   22091.76778543  .00000194  00000+0  51539-4 0  9993
2 38755  98.1632 160.1498 0001272  87.2502 272.8839 14.58569033508976
PLEIADES 1B             
1 39019U 12068A   22091.85500250  .00000344  00000+0  83835-4 0  9999
2 39019  98.2002 167.8392 0001291  95.2988 264.8408 14.58539264496766
GOKTURK 2               
1 39030U 12073A   22091.87377907  .00000326  00000+0  58335-4 0  9998
2 39030  97.8672 333.3721 0001203 130.5631 229.5690 14.72982170498086
